H1 CPF  1  HTS 2022 11 19 12  8231 larets           NONE
H2  0304206 5557    27944 2022 11 19  0  0  0 2022 11 24  0  0  0   180 1 1  0 0 0
H5  0.0560 
H9 
10 0 59901  85320.00000  0    5172303.944    3411884.603    3393372.309
10 0 59901  85500.00000  0    4701340.707    2752918.943    4492405.805
10 0 59901  85680.00000  0    4041073.538    2008736.185    5426952.639
10 0 59901  85860.00000  0    3213660.907    1211054.102    6162764.779
10 0 59901  86040.00000  0    2248191.769     392870.276    6672859.586
10 0 59901  86220.00000  0    1179642.054    -412904.062    6938483.846
10 0 59902      0.00000  0      47597.923   -1174765.648    6949790.945
10 0 59902    180.00000  0   -1105217.300   -1863855.613    6706204.547
10 0 59902    360.00000  0   -2234557.826   -2455062.551    6216457.232
10 0 59902    540.00000  0   -3296354.964   -2927952.207    5498310.334
10 0 59902    720.00000  0   -4248461.280   -3267501.429    4577961.039
10 0 59902    900.00000  0   -5052370.995   -3464602.767    3489118.995
10 0 59902   1080.00000  0   -5674830.620   -3516311.599    2271785.288
10 0 59902   1260.00000  0   -6089272.950   -3425827.442     970772.099
10 0 59902   1440.00000  0   -6276995.856   -3202203.104    -365993.220
10 0 59902   1620.00000  0   -6228016.418   -2859791.345   -1689301.544
10 0 59902   1800.00000  0   -5941549.858   -2417459.055   -2950549.462
10 0 59902   1980.00000  0   -5426086.986   -1897614.533   -4103581.021
10 0 59902   2160.00000  0   -4699081.522   -1325107.730   -5106400.249
10 0 59902   2340.00000  0   -3786274.163    -726063.159   -5922686.538
10 0 59902   2520.00000  0   -2720696.027    -126704.875   -6523058.559
10 0 59902   2700.00000  0   -1541410.983     447768.997   -6886052.673
10 0 59902   2880.00000  0    -292056.361     974214.426   -6998805.632
10 0 59902   3060.00000  0     980759.687    1432441.792   -6857442.091
10 0 59902   3240.00000  0    2229158.916    1805963.079   -6467178.544
10 0 59902   3420.00000  0    3405755.061    2082569.375   -5842138.831
10 0 59902   3600.00000  0    4465418.605    2254719.910   -5004878.224
10 0 59902   3780.00000  0    5366993.281    2319733.509   -3985631.136
10 0 59902   3960.00000  0    6074909.549    2279776.211   -2821284.023
10 0 59902   4140.00000  0    6560626.358    2141641.875   -1554095.461
10 0 59902   4320.00000  0    6803836.315    1916332.267    -230191.144
10 0 59902   4500.00000  0    6793363.539    1618449.401    1102116.388
10 0 59902   4680.00000  0    6527699.880    1265428.612    2394111.882
10 0 59902   4860.00000  0    6015153.981     876650.292    3598492.873
10 0 59902   5040.00000  0    5273591.567     472473.267    4671137.196
10 0 59902   5220.00000  0    4329783.145      73243.434    5572738.972
10 0 59902   5400.00000  0    3218397.693    -301673.170    6270252.400
10 0 59902   5580.00000  0    1980687.920    -634785.917    6738087.969
10 0 59902   5760.00000  0     662934.424    -911263.802    6959031.668
10 0 59902   5940.00000  0    -685300.468   -1119580.954    6924866.061
10 0 59902   6120.00000  0   -2013043.167   -1251996.597    6636672.530
10 0 59902   6300.00000  0   -3269837.929   -1304850.729    6104814.188
10 0 59902   6480.00000  0   -4407678.622   -1278664.438    5348604.701
10 0 59902   6660.00000  0   -5382887.826   -1178045.821    4395654.037
10 0 59902   6840.00000  0   -6157859.583   -1011399.561    3280890.059
10 0 59902   7020.00000  0   -6702583.278    -790448.876    2045287.312
10 0 59902   7200.00000  0   -6995884.230    -529592.324     734344.738
10 0 59902   7380.00000  0   -7026306.428    -245126.270    -603642.977
10 0 59902   7560.00000  0   -6792578.612      45626.529   -1919436.359
10 0 59902   7740.00000  0   -6303641.582     325233.830   -3164732.260
10 0 59902   7920.00000  0   -5578245.766     577065.211   -4293990.091
10 0 59902   8100.00000  0   -4644137.978     786151.268   -5266119.574
10 0 59902   8280.00000  0   -3536898.364     939944.146   -6045952.629
10 0 59902   8460.00000  0   -2298500.807    1028943.496   -6605454.861
10 0 59902   8640.00000  0    -975672.329    1047164.024   -6924651.494
10 0 59902   8820.00000  0     381879.816     992433.105   -6992257.340
10 0 59902   9000.00000  0    1723306.150     866509.036   -6806014.231
10 0 59902   9180.00000  0    2998476.262     675019.191   -6372746.056
10 0 59902   9360.00000  0    4159811.573     427220.526   -5708118.345
10 0 59902   9540.00000  0    5164030.941     135589.323   -4836112.965
10 0 59902   9720.00000  0    5973763.797    -184745.930   -3788227.316
10 0 59902   9900.00000  0    6558972.902    -516710.422   -2602400.529
10 0 59902  10080.00000  0    6898124.691    -842101.627   -1321691.135
10 0 59902  10260.00000  0    6979048.939   -1142484.223       7262.672
10 0 59902  10440.00000  0    6799434.854   -1400118.189    1335944.551
10 0 59902  10620.00000  0    6366931.570   -1598875.087    2615756.767
10 0 59902  10800.00000  0    5698838.602   -1725092.983    3799835.578
10 0 59902  10980.00000  0    4821397.484   -1768323.643    4844799.405
10 0 59902  11160.00000  0    3768727.028   -1721934.646    5712353.709
10 0 59902  11340.00000  0    2581458.070   -1583534.848    6370695.061
10 0 59902  11520.00000  0    1305129.288   -1355207.490    6795662.340
10 0 59902  11700.00000  0     -11582.673   -1043540.268    6971604.312
10 0 59902  11880.00000  0   -1318732.119    -659447.575    6891941.469
10 0 59902  12060.00000  0   -2567001.586    -217792.038    6559412.711
10 0 59902  12240.00000  0   -3709569.422     263184.855    5986006.254
10 0 59902  12420.00000  0   -4703892.974     762605.719    5192570.088
10 0 59902  12600.00000  0   -5513344.721    1257848.602    4208096.592
10 0 59902  12780.00000  0   -6108630.914    1725554.433    3068691.155
10 0 59902  12960.00000  0   -6468924.783    2142706.496    1816252.774
10 0 59902  13140.00000  0   -6582661.190    2487730.159     496909.516
10 0 59902  13320.00000  0   -6447942.943    2741556.359    -840736.507
10 0 59902  13500.00000  0   -6072528.715    2888587.118   -2147471.827
10 0 59902  13680.00000  0   -5473406.145    2917512.706   -3375352.865
10 0 59902  13860.00000  0   -4675973.039    2821935.210   -4479516.014
10 0 59902  14040.00000  0   -3712883.770    2600767.738   -5419827.795
10 0 59902  14220.00000  0   -2622635.753    2258398.021   -6162309.968
10 0 59902  14400.00000  0   -1447977.527    1804618.503   -6680302.066
10 0 59902  14580.00000  0    -234207.105    1254329.447   -6955337.058
10 0 59902  14760.00000  0     972563.083     627034.118   -6977718.385
10 0 59902  14940.00000  0    2127121.461     -53851.925   -6746809.946
10 0 59902  15120.00000  0    3186811.053    -761861.231   -6271033.957
10 0 59902  15300.00000  0    4113069.360   -1468477.011   -5567578.724
10 0 59902  15480.00000  0    4872814.148   -2144249.492   -4661826.163
10 0 59902  15660.00000  0    5439636.913   -2759997.044   -3586502.243
10 0 59902  15840.00000  0    5794755.698   -3288044.915   -2380557.802
10 0 59902  16020.00000  0    5927685.532   -3703449.220   -1087803.069
10 0 59902  16200.00000  0    5836587.070   -3985149.807     244664.117
10 0 59902  16380.00000  0    5528269.502   -4116994.588    1568181.321
10 0 59902  16560.00000  0    5017837.126   -4088579.094    2834329.127
10 0 59902  16740.00000  0    4327989.971   -3895847.770    3996739.265
10 0 59902  16920.00000  0    3488021.218   -3541430.207    5012820.635
10 0 59902  17100.00000  0    2532558.279   -3034696.091    5845336.041
10 0 59902  17280.00000  0    1500112.483   -2391522.853    6463763.764
10 0 59902  17460.00000  0     431506.757   -1633791.976    6845399.511
10 0 59902  17640.00000  0    -631750.448    -788636.216    6976169.219
10 0 59902  17820.00000  0   -1649081.174     112536.572    6851136.731
10 0 59902  18000.00000  0   -2582390.346    1035210.569    6474697.365
10 0 59902  18180.00000  0   -3397505.373    1943083.682    5860450.807
10 0 59902  18360.00000  0   -4065455.506    2799501.233    5030751.761
10 0 59902  18540.00000  0   -4563546.532    3568954.683    4015938.946
10 0 59902  18720.00000  0   -4876183.443    4218583.084    2853251.099
10 0 59902  18900.00000  0   -4995399.164    4719610.721    1585460.624
10 0 59902  19080.00000  0   -4921058.013    5048650.822     259268.399
10 0 59902  19260.00000  0   -4660720.425    5188796.961   -1076475.165
10 0 59902  19440.00000  0   -4229174.087    5130446.991   -2372644.354
10 0 59902  19620.00000  0   -3647648.423    4871807.884   -3581716.158
10 0 59902  19800.00000  0   -2942767.721    4419057.190   -4659555.983
10 0 59902  19980.00000  0   -2145306.317    3786164.430   -5567027.396
10 0 59902  20160.00000  0   -1288823.043    2994401.670   -6271371.632
10 0 59902  20340.00000  0    -408238.232    2071569.607   -6747325.010
10 0 59902  20520.00000  0     461583.731    1050978.979   -6977942.400
10 0 59902  20700.00000  0    1287188.781     -29762.858   -6955125.561
10 0 59902  20880.00000  0    2037787.977   -1130122.837   -6679858.829
10 0 59902  21060.00000  0    2686372.811   -2208129.685   -6162150.567
10 0 59902  21240.00000  0    3210664.453   -3221933.773   -5420693.615
10 0 59902  21420.00000  0    3593875.639   -4131406.415   -4482246.549
10 0 59902  21600.00000  0    3825253.864   -4899720.764   -3380728.499
10 0 59902  21780.00000  0    3900387.170   -5494851.730   -2156057.441
10 0 59902  21960.00000  0    3821259.845   -5890941.059    -852747.981
10 0 59902  22140.00000  0    3596043.095   -6069451.014     481693.972
10 0 59902  22320.00000  0    3238624.325   -6020043.326    1798516.718
10 0 59902  22500.00000  0    2767896.145   -5741131.808    3049536.871
10 0 59902  22680.00000  0    2206835.734   -5240071.416    4188938.763
10 0 59902  22860.00000  0    1581426.713   -4532980.563    5174976.633
10 0 59902  23040.00000  0     919480.240   -3644204.865    5971515.921
10 0 59902  23220.00000  0     249409.180   -2605445.661    6549353.845
99
